{"fetched_at":"2026-07-06T18:36:01.066Z","source":"https://celestrak.org/NORAD/elements/gp.php?NAME=UMBRA&FORMAT=JSON","constellation":"umbra","records":[{"OBJECT_NAME":"UMBRA-07","OBJECT_ID":"2023-174AT","EPOCH":"2026-07-06T03:11:37.815648","CLASSIFICATION_TYPE":"U","MEAN_MOTION":15.09511296,"ECCENTRICITY":0.00033222,"INCLINATION":97.378,"RA_OF_ASC_NODE":242.1809,"ARG_OF_PERICENTER":45.6295,"MEAN_ANOMALY":314.5206,"EPHEMERIS_TYPE":0,"NORAD_CAT_ID":58297,"ELEMENT_SET_NO":999,"REV_AT_EPOCH":14627,"BSTAR":0.00058471295,"MEAN_MOTION_DOT":0.00009319,"MEAN_MOTION_DDOT":0},{"OBJECT_NAME":"UMBRA-09","OBJECT_ID":"2024-149CB","EPOCH":"2026-07-06T04:18:38.450880","CLASSIFICATION_TYPE":"U","MEAN_MOTION":15.18670979,"ECCENTRICITY":0.00015549,"INCLINATION":97.6964,"RA_OF_ASC_NODE":274.7172,"ARG_OF_PERICENTER":225.7744,"MEAN_ANOMALY":134.3362,"EPHEMERIS_TYPE":0,"NORAD_CAT_ID":60541,"ELEMENT_SET_NO":999,"REV_AT_EPOCH":10360,"BSTAR":0.00084502176,"MEAN_MOTION_DOT":0.00017473,"MEAN_MOTION_DDOT":0},{"OBJECT_NAME":"UMBRA-10","OBJECT_ID":"2024-149CH","EPOCH":"2026-07-06T04:18:00.244800","CLASSIFICATION_TYPE":"U","MEAN_MOTION":15.18664531,"ECCENTRICITY":0.00009656,"INCLINATION":97.6973,"RA_OF_ASC_NODE":274.7465,"ARG_OF_PERICENTER":175.9319,"MEAN_ANOMALY":184.1923,"EPHEMERIS_TYPE":0,"NORAD_CAT_ID":60547,"ELEMENT_SET_NO":999,"REV_AT_EPOCH":10361,"BSTAR":0.00085807913,"MEAN_MOTION_DOT":0.00017742,"MEAN_MOTION_DDOT":0},{"OBJECT_NAME":"UMBRA-11","OBJECT_ID":"2025-276CL","EPOCH":"2026-07-06T04:38:59.546400","CLASSIFICATION_TYPE":"U","MEAN_MOTION":15.27521572,"ECCENTRICITY":0.00017504,"INCLINATION":97.4183,"RA_OF_ASC_NODE":261.7152,"ARG_OF_PERICENTER":213.2935,"MEAN_ANOMALY":146.8195,"EPHEMERIS_TYPE":0,"NORAD_CAT_ID":66748,"ELEMENT_SET_NO":999,"REV_AT_EPOCH":3339,"BSTAR":0.00082980924,"MEAN_MOTION_DOT":0.0002231,"MEAN_MOTION_DDOT":0},{"OBJECT_NAME":"UMBRA-12","OBJECT_ID":"2026-004J","EPOCH":"2026-07-05T23:39:12.018528","CLASSIFICATION_TYPE":"U","MEAN_MOTION":14.89481985,"ECCENTRICITY":0.00077796,"INCLINATION":97.802,"RA_OF_ASC_NODE":185.4961,"ARG_OF_PERICENTER":76.495,"MEAN_ANOMALY":283.7134,"EPHEMERIS_TYPE":0,"NORAD_CAT_ID":67371,"ELEMENT_SET_NO":999,"REV_AT_EPOCH":2610,"BSTAR":0.00054031723,"MEAN_MOTION_DOT":0.00005093,"MEAN_MOTION_DDOT":0}]}
